STARLINK-3447           
1 51736U 22016Y   23212.97365603  .00000569  00000+0  53859-4 0  9995
2 51736  53.2161 271.5401 0001235  86.6351 273.4782 15.08841428 81016
STARLINK-3509           
1 51737U 22016Z   23212.45477578  .00001130  00000+0  89025-4 0  9993
2 51737  53.2167 273.8695 0000980  72.5772 287.5327 15.08847985 80867
STARLINK-3515           
1 51738U 22016AA  23212.90005802  .00002499  00000+0  17507-3 0  9995
2 51738  53.2166 271.8696 0001171  86.8130 273.2996 15.08837959 80982
STARLINK-3516           
1 51739U 22016AB  23212.97733871 -.00000667  00000+0 -23795-4 0  9991
2 51739  53.2171 271.5253 0001244  97.6745 262.4388 15.08839828 81004
STARLINK-3500           
1 51740U 22016AC  23212.42901449  .00003342  00000+0  22790-3 0  9995
2 51740  53.2155 273.9847 0001051  85.5873 274.5239 15.08849794 80862
STARLINK-3520           
1 51741U 22016AD  23212.63973224  .00004123  00000+0  27693-3 0  9994
2 51741  53.2159 273.0490 0001288  88.2607 271.8533 15.08850616 80940
STARLINK-3521           
1 51742U 22016AE  23212.88629226  .00000802  00000+0  68460-4 0  9990
2 51742  53.2153 271.9081 0001502  76.4167 283.6993 15.08839950 81004
STARLINK-3512           
1 51743U 22016AF  23212.45297580  .00001379  00000+0  10473-3 0  9998
2 51743  53.2154 263.8856 0001130  93.6003 266.5118 15.08841677 81078
STARLINK-3452           
1 51744U 22016AG  23212.95158097  .00002026  00000+0  14533-3 0  9994
2 51744  53.2146 271.6667 0001323  78.9826 281.1314 15.08842430 80944
STARLINK-3449           
1 51745U 22016AH  23212.49893666  .00000941  00000+0  77209-4 0  9996
2 51745  53.2168 273.6701 0001169  79.8207 280.2917 15.08844742 80948
STARLINK-3502           
1 51746U 22016AJ  23212.84673321  .00000523  00000+0  50968-4 0  9999
2 51746  53.2149 262.1214 0001219  92.9001 267.2131 15.08841941 81126
STARLINK-3446           
1 51747U 22016AK  23211.89638073  .00001624  00000+0  12011-3 0  9998
2 51747  53.2167 276.4248 0001186  87.5780 272.5348 15.08841246 80855
STARLINK-3501           
1 51748U 22016AL  23212.50721346  .00000597  00000+0  55572-4 0  9992
2 51748  53.2165 263.6371 0001133 100.5024 259.6095 15.08846591 81021
STARLINK-3451           
1 51749U 22016AM  23212.99943749  .00002934  00000+0  20240-3 0  9999
2 51749  53.2160 271.6112 0001437  94.9525 265.1631 15.08836463 80998
STARLINK-3505           
1 51750U 22016AN  23213.09602171 -.00000057  00000+0  14530-4 0  9995
2 51750  53.2165 260.9927 0000983  94.5619 265.5485 15.08832629 81166
STARLINK-3506           
1 51751U 22016AP  23213.10706905  .00006017  00000+0  39612-3 0  9996
2 51751  53.2167 260.9428 0000964  92.1897 267.9206 15.08811920 81153
STARLINK-3511           
1 51752U 22016AQ  23212.49617218  .00001147  00000+0  90121-4 0  9998
2 51752  53.2168 263.6839 0001266  89.0618 271.0519 15.08848432 81075
STARLINK-3507           
1 51753U 22016AR  23212.83473628 -.00001596  00000+0 -82207-4 0  9998
2 51753  53.2166 262.1662 0001202  67.7009 292.4110 15.08836819 81079
STARLINK-3457           
1 51754U 22016AS  23212.86414924  .00000316  00000+0  37902-4 0  9995
2 51754  53.2162 261.7883 0000774  86.0161 274.0920 15.08839781 81124
STARLINK-3460           
1 51755U 22016AT  23211.43265576  .00001402  00000+0  10614-3 0  9992
2 51755  53.2171 268.4588 0001179  91.3215 268.7913 15.08840318 80905
STARLINK-3513           
1 51756U 22016AU  23212.99297977  .00000024  00000+0  19573-4 0  9998
2 51756  53.2161 261.4536 0001194  80.4525 279.6602 15.08839229 81109
STARLINK-3459           
1 51757U 22016AV  23212.39409102 -.00002174  00000+0 -11854-3 0  9991
2 51757  53.2153 264.1558 0001182  92.1166 267.9961 15.08836401 81054
STARLINK-3458           
1 51758U 22016AW  23212.98193075  .00001760  00000+0  12861-3 0  9993
2 51758  53.2148 261.4590 0001193  88.7080 271.4049 15.08840012 81176
STARLINK-3456           
1 51759U 22016AX  23212.98561653  .00001037  00000+0  83228-4 0  9998
2 51759  53.2152 261.4888 0001294  81.5203 278.5936 15.08841206 81160
STARLINK-3622           
1 51768U 22017A   23212.55229122  .00001505  00000+0  11262-3 0  9992
2 51768  53.2176 293.4315 0001205  83.4063 276.7067 15.08851200 80319
STARLINK-3621           
1 51769U 22017B   23211.68381659  .00001566  00000+0  11644-3 0  9991
2 51769  53.2172 297.3312 0001121  97.2135 262.8985 15.08842771 80189
STARLINK-3612           
1 51770U 22017C   23212.54861092  .00001934  00000+0  13954-3 0  9998
2 51770  53.2178 293.4482 0001149  88.3134 271.7990 15.08852648 80316
STARLINK-3614           
1 51771U 22017D   23212.60845239  .00000972  00000+0  79154-4 0  9997
2 51771  53.2181 293.1786 0001322  96.8723 263.2419 15.08847954 80323
STARLINK-3623           
1 51772U 22017E   23212.40141470  .00002117  00000+0  15103-3 0  9998
2 51772  53.2166 294.1108 0001150  91.9177 268.1947 15.08847353 80349
STARLINK-3624           
1 51773U 22017F   23213.00493562  .00001226  00000+0  95073-4 0  9993
2 51773  53.2161 291.3994 0001138  92.2095 267.9028 15.08841508 80394
STARLINK-3629           
1 51774U 22017G   23212.59278273 -.00000679  00000+0 -24555-4 0  9997
2 51774  53.2168 293.2486 0001090  91.6509 268.4608 15.08836700 80331
STARLINK-3620           
1 51775U 22017H   23212.40509385  .00001129  00000+0  88971-4 0  9990
2 51775  53.2181 294.0917 0001162 100.6412 259.4711 15.08847442 80294
STARLINK-3608           
1 51776U 22017J   23212.92029286  .00002155  00000+0  15342-3 0  9996
2 51776  53.2168 291.7800 0000836  85.9704 274.1383 15.08845764 80374
STARLINK-3625           
1 51777U 22017K   23212.52748553  .00004705  00000+0  31343-3 0  9990
2 51777  53.2179 293.5171 0001278  91.5856 268.5283 15.08850861 80325
STARLINK-3615           
1 51778U 22017L   23212.46488219  .00006763  00000+0  44251-3 0  9992
2 51778  53.2151 283.6980 0001281  82.7911 277.3227 15.08846693 80450
STARLINK-3611           
1 51779U 22017M   23212.45757684  .00003606  00000+0  24451-3 0  9990
2 51779  53.2176 293.9056 0001397  88.5074 271.6078 15.08848441 80306
STARLINK-3617           
1 51780U 22017N   23212.44557981  .00007294  00000+0  47575-3 0  9998
2 51780  53.2171 293.9420 0001132  85.7276 274.3846 15.08850672 80355
STARLINK-3580           
1 51781U 22017P   23212.91757588  .00004867  00000+0  32362-3 0  9997
2 51781  53.2156 291.8422 0000787  76.4319 283.6760 15.08843664 80382
STARLINK-3616           
1 51782U 22017Q   23212.66640516  .00001539  00000+0  11470-3 0  9992
2 51782  53.2179 302.9295 0001325  98.4442 261.6701 15.08851123 80199
STARLINK-3628           
1 51783U 22017R   23212.91390144  .00000900  00000+0  74607-4 0  9993
2 51783  53.2175 291.8580 0001216  90.5398 269.5734 15.08838651 80375
STARLINK-3632           
1 51784U 22017S   23212.39681307  .00001218  00000+0  94592-4 0  9998
2 51784  53.2168 304.1328 0001287  85.0443 275.0696 15.08847499 80160
STARLINK-3646           
1 51785U 22017T   23212.50813926 -.00001571  00000+0 -80638-4 0  9996
2 51785  53.2178 293.6297 0001514  98.9268 261.1895 15.08848224 80366
STARLINK-3638           
1 51786U 22017U   23211.66081480  .00001897  00000+0  13721-3 0  9992
2 51786  53.2165 307.4363 0001215  87.6841 272.4290 15.08847066 80098
STARLINK-3619           
1 51787U 22017V   23212.66913207  .00006492  00000+0  42539-3 0  9990
2 51787  53.2174 302.9090 0001186  80.1842 279.9284 15.08859031 80193
STARLINK-3641           
1 51788U 22017W   23212.57713208  .00002762  00000+0  19149-3 0  9997
2 51788  53.2176 303.3187 0001038  99.2237 260.8873 15.08851495 80181
STARLINK-3639           
1 51789U 22017X   23212.65808842  .00002060  00000+0  14742-3 0  9991
2 51789  53.2174 302.9582 0001319  88.7129 271.4014 15.08849708 80201
STARLINK-3631           
1 51790U 22017Y   23212.57344874 -.00002491  00000+0 -13836-3 0  9997
2 51790  53.2185 303.3372 0001381  96.4565 263.6584 15.08861487 80232
STARLINK-3602           
1 51791U 22017Z   23212.65073116  .00007389  00000+0  48160-3 0  9992
2 51791  53.2164 302.9911 0001153  95.9958 264.1166 15.08858520 80192
STARLINK-3626           
1 51792U 22017AA  23212.56609337  .00001275  00000+0  98172-4 0  9990
2 51792  53.2180 303.3704 0001192  93.5001 266.6128 15.08848690 80239
STARLINK-3633           
1 51793U 22017AB  23212.64705367  .00003263  00000+0  22294-3 0  9990
2 51793  53.2170 303.0098 0001288  72.1512 287.9621 15.08851063 80241
STARLINK-3573           
1 51794U 22017AC  23212.69121043  .00006344  00000+0  41611-3 0  9996
2 51794  53.2167 302.8102 0001082  94.1332 265.9784 15.08855643 80207
STARLINK-3586           
1 51795U 22017AD  23212.56241368  .00008700  00000+0  56384-3 0  9997
2 51795  53.2159 303.3899 0001267  91.5233 268.5904 15.08852000 80188
STARLINK-3630           
1 51796U 22017AE  23212.68016646  .00002465  00000+0  17282-3 0  9996
2 51796  53.2162 302.8559 0001132  87.2864 272.8258 15.08854477 80194
STARLINK-3627           
1 51797U 22017AF  23212.62904922 -.00008045  00000+0 -29926-3 0  9994
2 51797  53.1828 288.1927 0007564 357.3687   2.7271 15.25597446 80450
STARLINK-3634           
1 51798U 22017AG  23212.41153438  .00000522  00000+0  50877-4 0  9990
2 51798  53.2172 304.0617 0000959  89.7986 270.3116 15.08844204 80209
STARLINK-3637           
1 51799U 22017AH  23212.42257176  .00003513  00000+0  23865-3 0  9995
2 51799  53.2168 304.0126 0001233  97.9041 262.2091 15.08850651 80169
STARLINK-3600           
1 51800U 22017AJ  23213.25001157  .01027441  00000+0  13798-1 0  9995
2 51800  53.2175 296.4102 0001403 109.5911 357.3707 15.54811549 80381
STARLINK-3592           
1 51801U 22017AK  23212.61761134  .00009720  00000+0  62769-3 0  9996
2 51801  53.2168 303.1366 0000912  89.7462 270.3634 15.08855475 80193
STARLINK-3557           
1 51802U 22017AL  23211.70865793  .00001666  00000+0  12274-3 0  9999
2 51802  53.2185 307.2103 0001257  91.8107 268.3029 15.08841800 80057
